COMMENT,ORIGINATOR,NORAD_CAT_ID,OBJECT_NAME,OBJECT_TYPE,CLASSIFICATION_TYPE,INTLDES,EPOCH,EPOCH_MICROSECONDS,MEAN_MOTION,ECCENTRICITY,INCLINATION,RA_OF_ASC_NODE,ARG_OF_PERICENTER,MEAN_ANOMALY,EPHEMERIS_TYPE,ELEMENT_SET_NO,REV_AT_EPOCH,BSTAR,MEAN_MOTION_DOT,MEAN_MOTION_DDOT,FILE,TLE_LINE0,TLE_LINE1,TLE_LINE2,OBJECT_ID,OBJECT_NUMBER,SEMIMAJOR_AXIS,PERIOD,APOGEE,PERIGEE,DECAYED
"GENERATED VIA SPACETRACK.ORG API","18 SPCS","55102","SPACEBEE-157","PAYLOAD","U","23001CX","2023-09-09 09:55:29","368704","15.24000818","0.0014679","97.4671","312.095","74.5246","285.7611","0","999","3792","0.00086403","0.00020958","0","4001770","0 SPACEBEE-157","1 55102U 23001CX  23252.41353436  .00020958  00000-0  86403-3 0  9990","2 55102  97.4671 312.0950 0014679  74.5246 285.7611 15.24000818 37924","2023-001CX","55102","6871.924","94.488","503.877","483.702","0"
"GENERATED VIA SPACETRACK.ORG API","18 SPCS","55102","SPACEBEE-157","PAYLOAD","U","23001CX","2023-09-10 09:33:41","869728","15.24044659","0.0014549","97.4672","313.0758","71.1012","289.1801","0","999","3807","0.00090705","0.00022036","0","4002485","0 SPACEBEE-157","1 55102U 23001CX  23253.39840127  .00022036  00000-0  90705-3 0  9995","2 55102  97.4672 313.0758 0014549  71.1012 289.1801 15.24044659 38079","2023-001CX","55102","6871.793","94.485","503.655","483.660","0"
"GENERATED VIA SPACETRACK.ORG API","18 SPCS","55102","SPACEBEE-157","PAYLOAD","U","23001CX","2023-09-10 09:33:41","869728","15.24044659","0.0014549","97.4672","313.0758","71.1012","289.1801","0","999","3807","0.00090705","0.00022036","0","4002632","0 SPACEBEE-157","1 55102U 23001CX  23253.39840127  .00022036  00000-0  90705-3 0  9995","2 55102  97.4672 313.0758 0014549  71.1012 289.1801 15.24044659 38079","2023-001CX","55102","6871.793","94.485","503.655","483.660","0"
"GENERATED VIA SPACETRACK.ORG API","18 SPCS","55102","SPACEBEE-157","PAYLOAD","U","23001CX","2023-09-11 02:53:41","560224","15.24076827","0.001452","97.4673","313.7953","68.5385","291.7399","0","999","3818","0.00099686","0.00024255","0","4003535","0 SPACEBEE-157","1 55102U 23001CX  23254.12061991  .00024255  00000-0  99686-3 0  9993","2 55102  97.4673 313.7953 0014520  68.5385 291.7399 15.24076827 38181","2023-001CX","55102","6871.696","94.483","503.539","483.583","0"
"GENERATED VIA SPACETRACK.ORG API","18 SPCS","55102","SPACEBEE-157","PAYLOAD","U","23001CX","2023-09-11 17:04:34","830336","15.2410429","0.0014495","97.4674","314.3837","66.7577","293.5185","0","999","3827","0.0010069","0.00024521","0","4003668","0 SPACEBEE-157","1 55102U 23001CX  23254.71151424  .00024521  00000-0  10069-2 0  9992","2 55102  97.4674 314.3837 0014495  66.7577 293.5185 15.24104290 38273","2023-001CX","55102","6871.613","94.482","503.439","483.518","0"
"GENERATED VIA SPACETRACK.ORG API","18 SPCS","55102","SPACEBEE-157","PAYLOAD","U","23001CX","2023-09-12 04:06:22","233024","15.24127158","0.0014469","97.4672","314.8417","65.2569","295.0173","0","999","3834","0.0010088","0.00024584","0","4004425","0 SPACEBEE-157","1 55102U 23001CX  23255.17109066  .00024584  00000-0  10088-2 0  9998","2 55102  97.4672 314.8417 0014469  65.2569 295.0173 15.24127158 38346","2023-001CX","55102","6871.545","94.480","503.352","483.467","0"
"GENERATED VIA SPACETRACK.ORG API","18 SPCS","55102","SPACEBEE-157","PAYLOAD","U","23001CX","2023-09-12 16:42:41","447520","15.24152294","0.0014423","97.4671","315.3647","63.6206","296.651","0","999","3842","0.00099892","0.0002436","0","4004701","0 SPACEBEE-157","1 55102U 23001CX  23255.69631305  .00024360  00000-0  99892-3 0  9994","2 55102  97.4671 315.3647 0014423  63.6206 296.6510 15.24152294 38426","2023-001CX","55102","6871.469","94.479","503.245","483.423","0"
"GENERATED VIA SPACETRACK.ORG API","18 SPCS","55102","SPACEBEE-157","PAYLOAD","U","23001CX","2023-09-13 02:09:55","41696","15.24187332","0.0014405","97.4669","315.7573","62.0552","298.2142","0","999","3848","0.0014769","0.00036144","0","4004886","0 SPACEBEE-157","1 55102U 23001CX  23256.09022039  .00036144  00000-0  14769-2 0  9999","2 55102  97.4669 315.7573 0014405  62.0552 298.2142 15.24187332 38488","2023-001CX","55102","6871.364","94.477","503.127","483.331","0"
"GENERATED VIA SPACETRACK.ORG API","18 SPCS","55102","SPACEBEE-157","PAYLOAD","U","23001CX","2023-09-13 03:44:27","287232","15.24192689","0.0014403","97.4668","315.8228","61.8718","298.3973","0","999","3849","0.0015569","0.00038122","0","4005353","0 SPACEBEE-157","1 55102U 23001CX  23256.15587138  .00038122  00000-0  15569-2 0  9999","2 55102  97.4668 315.8228 0014403  61.8718 298.3973 15.24192689 38499","2023-001CX","55102","6871.348","94.476","503.110","483.316","0"
"GENERATED VIA SPACETRACK.ORG API","18 SPCS","55102","SPACEBEE-157","PAYLOAD","U","23001CX","2023-09-13 17:55:16","481856","15.24227648","0.0014299","97.4667","316.4111","60.0469","300.2185","0","999","3858","0.0011777","0.00028812","0","4005648","0 SPACEBEE-157","1 55102U 23001CX  23256.74671854  .00028812  00000-0  11777-2 0  9995","2 55102  97.4667 316.4111 0014299  60.0469 300.2185 15.24227648 38585","2023-001CX","55102","6871.243","94.474","502.933","483.282","0"
"GENERATED VIA SPACETRACK.ORG API","18 SPCS","55102","SPACEBEE-157","PAYLOAD","U","23001CX","2023-09-14 03:22:28","684992","15.24248536","0.0014253","97.4665","316.8036","58.575","301.6879","0","999","3864","0.0011129","0.00027234","0","4005850","0 SPACEBEE-157","1 55102U 23001CX  23257.14060978  .00027234  00000-0  11129-2 0  9997","2 55102  97.4665 316.8036 0014253  58.5750 301.6879 15.24248536 38649","2023-001CX","55102","6871.180","94.473","502.838","483.251","0"
"GENERATED VIA SPACETRACK.ORG API","18 SPCS","55102","SPACEBEE-157","PAYLOAD","U","23001CX","2023-09-14 09:40:36","562080","15.24262157","0.0014208","97.4664","317.0651","57.6686","302.5925","0","999","3868","0.0011213","0.00027451","0","4006374","0 SPACEBEE-157","1 55102U 23001CX  23257.40320095  .00027451  00000-0  11213-2 0  9990","2 55102  97.4664 317.0651 0014208  57.6686 302.5925 15.24262157 38683","2023-001CX","55102","6871.139","94.472","502.766","483.241","0"
"GENERATED VIA SPACETRACK.ORG API","18 SPCS","55102","SPACEBEE-157","PAYLOAD","U","23001CX","2023-09-14 15:58:44","276736","15.24274811","0.001416","97.4663","317.3267","56.8205","303.4388","0","999","3872","0.0010878","0.00026636","0","4006631","0 SPACEBEE-157","1 55102U 23001CX  23257.66579024  .00026636  00000-0  10878-2 0  9996","2 55102  97.4663 317.3267 0014160  56.8205 303.4388 15.24274811 38721","2023-001CX","55102","6871.101","94.471","502.695","483.236","0"
"GENERATED VIA SPACETRACK.ORG API","18 SPCS","55102","SPACEBEE-157","PAYLOAD","U","23001CX","2023-09-15 03:00:27","332640","15.24294318","0.001415","97.4661","317.7848","55.0712","305.1852","0","999","3879","0.0010062","0.0002464","0","4007119","0 SPACEBEE-157","1 55102U 23001CX  23258.12531635  .00024640  00000-0  10062-2 0  9992","2 55102  97.4661 317.7848 0014150  55.0712 305.1852 15.24294318 38797","2023-001CX","55102","6871.042","94.470","502.630","483.185","0"
"GENERATED VIA SPACETRACK.ORG API","18 SPCS","55102","SPACEBEE-157","PAYLOAD","U","23001CX","2023-09-15 03:00:27","332640","15.24294318","0.001415","97.4661","317.7848","55.0712","305.1852","0","999","3879","0.0010062","0.0002464","0","4007228","0 SPACEBEE-157","1 55102U 23001CX  23258.12531635  .00024640  00000-0  10062-2 0  9992","2 55102  97.4661 317.7848 0014150  55.0712 305.1852 15.24294318 38797","2023-001CX","55102","6871.042","94.470","502.630","483.185","0"
"GENERATED VIA SPACETRACK.ORG API","18 SPCS","55102","SPACEBEE-157","PAYLOAD","U","23001CX","2023-09-16 02:38:23","276832","15.24343473","0.0014095","97.4654","318.7657","52.1448","308.1062","0","999","3894","0.0010294","0.00025248","0","4008138","0 SPACEBEE-157","1 55102U 23001CX  23259.10999163  .00025248  00000-0  10294-2 0  9997","2 55102  97.4654 318.7657 0014095  52.1448 308.1062 15.24343473 38940","2023-001CX","55102","6870.895","94.467","502.444","483.075","0"
"GENERATED VIA SPACETRACK.ORG API","18 SPCS","55102","SPACEBEE-157","PAYLOAD","U","23001CX","2023-09-16 16:49:07","699584","15.24365021","0.0014032","97.4652","319.3541","50.4398","309.8076","0","999","3903","0.00078859","0.00019322","0","4008272","0 SPACEBEE-157","1 55102U 23001CX  23259.70078356  .00019322  00000-0  78859-3 0  9993","2 55102  97.4652 319.3541 0014032  50.4398 309.8076 15.24365021 39030","2023-001CX","55102","6870.830","94.466","502.336","483.054","0"
"GENERATED VIA SPACETRACK.ORG API","18 SPCS","55102","SPACEBEE-157","PAYLOAD","U","23001CX","2023-09-17 03:50:48","299136","15.2439179","0.0013987","97.465","319.8118","48.7995","311.4445","0","999","3910","0.0012017","0.00029544","0","4008858","0 SPACEBEE-157","1 55102U 23001CX  23260.16028124  .00029544  00000-0  12017-2 0  9993","2 55102  97.4650 319.8118 0013987  48.7995 311.4445 15.24391790 39103","2023-001CX","55102","6870.749","94.464","502.224","483.004","0"
"GENERATED VIA SPACETRACK.ORG API","18 SPCS","55102","SPACEBEE-157","PAYLOAD","U","23001CX","2023-09-17 03:50:48","299136","15.2439179","0.0013987","97.465","319.8118","48.7995","311.4445","0","999","3910","0.0012017","0.00029544","0","4008915","0 SPACEBEE-157","1 55102U 23001CX  23260.16028124  .00029544  00000-0  12017-2 0  9993","2 55102  97.4650 319.8118 0013987  48.7995 311.4445 15.24391790 39103","2023-001CX","55102","6870.749","94.464","502.224","483.004","0"
"GENERATED VIA SPACETRACK.ORG API","18 SPCS","55102","SPACEBEE-157","PAYLOAD","U","23001CX","2023-09-18 09:46:43","918464","15.24454536","0.0013727","97.4646","321.0536","44.6487","315.5854","0","999","3929","0.0011528","0.00028385","0","4009743","0 SPACEBEE-157","1 55102U 23001CX  23261.40745276  .00028385  00000-0  11528-2 0  9993","2 55102  97.4646 321.0536 0013727  44.6487 315.5854 15.24454536 39297","2023-001CX","55102","6870.561","94.460","501.857","482.995","0"
